Borough,Market Name ,Street Address,Day(s),Hours,Distribute Health Bucks,Accepts Health Bucks,EBT,Stellar
Brooklyn,Bartel-Pritchard Square Greenmarket,Prospect Park W at 15th St,Wednesday,8am-3pm,1,1,1,0
Brooklyn,Bay Ridge Greenmarket,3rd Ave & 95th St,Saturday ,8am-3pm,1,1,1,0
Brooklyn,BFM I Satellite at Wyckoff Heights Medical Center,Wyckoff Ave & Stanhope St,Wednesday,12pm-5pm,1,1,1,0
Brooklyn,BFM II Satellite at Irving Square Park,Wilson Ave & Halsey St,Saturday,11am-4pm,1,1,1,0
Brooklyn,BFM III Satellite at Bushwick Campus,Irving & Putnam Aves,Thursday,12pm-5pm,1,1,1,0
Brooklyn,Boro Park Greenmarket,14th Ave bet 49th & 50th Sts,Thursday,8am-2pm,1,1,1,0
Brooklyn,Brooklyn Borough Hall Greenmarket,Court & Montague Sts,"Tuesday, Thursday & Saturday",8am-3pm,1,1,1,0
Brooklyn,Brownsville Community Farmers' Market,514 Rockaway Ave at Sutter Ave ,Saturday , 8:30am-3pm,1,1,1,0
Brooklyn,Brownsville Pitkin Avenue Youthmarket,Thomas Boyland St bet Pitkin & Sutter Aves,Saturday ,9:30am-3:30pm,1,1,1,0
Brooklyn,Brownsville Recreational Center Youthmarket,"Linden Blvd bet Stone & Hegeman Aves, on access road by ball field fence",Saturday,10:30am-2:30pm,1,1,1,0
Brooklyn,Brownsville Youthmarket,Rockaway & Livonia Aves,Friday,1pm-6pm,1,1,1,0
Brooklyn,Bushwick Farmers' Market I,Linden St & Broadway ,Wednesday ,10am-6pm,1,1,1,1
Brooklyn,Bushwick Farmers' Market II at Maria Hernandez Park ,Knickerbocker Ave & Starr St ,Saturday ,9am-5pm ,1,1,1,1
Brooklyn,Bushwick Farmers' Market III ,Halsey St & Broadway,Thursday,10am-6pm,1,1,1,1
Brooklyn,Carroll Gardens Greenmarket,Carroll St bet Court & Smith Sts,Sunday,8am-3pm,1,1,1,0
Brooklyn,Cooper Park Farmers' Market,"Maspeth Ave & Olive St, at Cooper Park",Sunday,11am-4pm,1,1,1,0
Brooklyn,Cortelyou Greenmarket,Cortelyou Rd bet Argyle & Rugby Rds,Sunday,8am-2pm,1,1,1,0
Brooklyn,Cypress Hills Youthmarket,Fulton St bet Richmond & Logan Sts,Friday,1pm-7pm,1,1,1,0
Brooklyn,East New York Farm Stand,New Lots Ave bet Alabama & Georgia Aves,Wednesday,3:30pm-6:30pm,1,1,1,0
Brooklyn,East New York Farmers' Market ,Schenck Ave bet New Lots & Livonia Aves,Saturday ,9am-3pm,1,1,1,0
Brooklyn,Fort Greene Park Greenmarket,Washington Park bet DeKalb & Willoughby Aves,Saturday ,8am-3pm,1,1,1,0
Brooklyn,Graham Avenue Farmers' Market,Cook St at Graham Ave,Saturday & Sunday ,8am-5pm,1,1,1,1
Brooklyn,Grand Army Plaza Greenmarket,Prospect Park W & Flatbush Ave ,Saturday,8am-4pm,1,1,1,0
Brooklyn,Greenpoint/ McCarren Park Greenmarket,Union Ave bet Driggs Ave & N 12th St,Saturday,8am-3pm,1,1,1,0
Brooklyn,Harvest Home Coney Island Hospital Farmers Market,Ocean Pkwy bet Ave Z & Shore Pkwy,Friday,8am-4pm,1,1,1,0
Brooklyn,Harvest Home Lutheran Hospital Farmers Market,"55th St off 2nd Ave, inside gate",Thursday,8am-4pm,1,1,1,0
Brooklyn,Hattie Carthan After Church Farmers' Market,49 Van Buren St bet Tompkins & Throop Aves,Sunday,1pm-6pm,1,1,1,0
Brooklyn,Hattie Carthan Community Farmers' Market ,Marcy Ave & Clifton Pl,Saturday ,9am-3pm,1,1,1,0
Brooklyn,High School for Public Service Youth Farmers' Market,600 Kingston Ave bet Rutland Rd & Winthrop St,Wednesday,2:30pm-6:30pm,1,1,1,0
Brooklyn,Isabahlia Farmers' Market,Livonia Ave bet Powell & Junius Sts,Saturday,8am-4pm,1,1,1,0
Brooklyn,Kensington Youthmarket,Ft. Hamilton Pkwy bet E 4th & E 5th Sts,Saturday,9am-3pm,1,1,1,0
Brooklyn,Malcolm X Blvd Farmers' Market,Malcolm X Blvd bet Marion & Chauncey Sts,Saturday ,8am-3pm,1,1,1,0
Brooklyn,Medgar Evers College Farmers' Market,Crown St bet Bedford & Franklin Aves,Wednesday,11am-6pm,1,1,1,0
Brooklyn,Myrtle Avenue Community-Run Farm Stand,Myrtle & N Portland Aves,Wednesday,4pm-7pm,1,1,1,0
Brooklyn,Red Hook Farmers' Market,"Columbia & Beard Sts, across from IKEA",Saturday ,10am-3pm,1,1,1,1
Brooklyn,Seeds in the Middle Farmers' Market,"Albany & Lefferts Aves, at Hamilton Metz Park",Thursday,12pm-7pm,1,1,1,0
Brooklyn,Sunset Park Greenmarket,4th Ave bet 59th & 60th Sts,Saturday,8am-2pm,1,1,1,0
Brooklyn,The Foodshed Farmers' Market,388 Atlantic Ave bet Bond & Hoyt Sts,Sunday,11am-5pm,1,1,1,0
Brooklyn,Urban Oasis Farmers' Market,Clarkson & Troy Aves,Wednesday,2pm-5:30pm,1,1,1,0
Brooklyn,Walt L Shamel Farmers' Market,"Dean St bet Franklin & Bedford Aves, at Walt L Shamel Garden",Saturday,8am-2pm,1,1,1,0
Brooklyn,Weeksville Farmers' Market ,Bergen St bet Buffalo & Rochester Aves,Saturday,9am-4pm,1,1,1,0
Brooklyn,Williamsburg Greenmarket,Havemeyer St bet Broadway & Division Ave,Thursday ,8am-2pm,1,1,1,1
Brooklyn,Windsor Terrace - PS 154 Greenmarket,11th Ave bet Sherman St & Windsor Pl,Sunday,9am-4pm,1,1,1,0
Brooklyn,Coney Island Farmers' Market,"Surf Ave & W 16th St, at MCU Park",Sunday,7am-3pm,0,1,0,0
Brooklyn,Flatbush Caton Merchants Mart Farmers' Market,794-814 Flatbush Ave at Caton Ave,Monday-Saturday & Sunday,10am-8pm & 10am-6pm,0,1,0,0
Brooklyn,McGolrick Park Farmers' Market,Russel St & Nassau Ave,Sunday,11am-4pm,0,1,0,0
Brooklyn,Park Slope Farmers' Market,"5th Ave & 4th St, in front of PS 51",Sunday,11am-5pm,0,1,0,0
Brooklyn,Project Eats Community Market,400 Pennsylvania Ave bet Blake and Dumont Aves,Friday,1pm-7pm,0,1,0,0
